******** Week 17 almanac for PRN-19 ********
ID:                         19
Health:                     000
Eccentricity:               0.9566307068E-002
Time of Applicability(s):  405504.0000
Orbital Inclination(rad):   0.9820017698
Rate of Right Ascen(r/s):  -0.7840326581E-008
SQRT(A)  (m 1/2):           5153.599121
Right Ascen at Week(rad):   0.1097224325E+001
Argument of Perigee(rad):   1.474597081
Mean Anom(rad):             0.6146802581E+000
Af0(s):                    -0.2832412720E-003
Af1(s/s):                   0.3637978807E-011
week:                        17

******** Week 17 almanac for PRN-20 ********
ID:                         20
Health:                     000
Eccentricity:               0.4666328430E-002
Time of Applicability(s):  405504.0000
Orbital Inclination(rad):   0.9316800094
Rate of Right Ascen(r/s):  -0.8206056101E-008
SQRT(A)  (m 1/2):           5153.560059
Right Ascen at Week(rad):   0.2968107516E+001
Argument of Perigee(rad):   2.406160469
Mean Anom(rad):             0.1630277031E+001
Af0(s):                     0.5264282227E-003
Af1(s/s):                   0.0000000000E+000
week:                        17

******** Week 17 almanac for PRN-21 ********
ID:                         21
Health:                     000
Eccentricity:               0.2450180054E-001
Time of Applicability(s):  405504.0000
Orbital Inclination(rad):   0.9492908279
Rate of Right Ascen(r/s):  -0.7977475151E-008
SQRT(A)  (m 1/2):           5153.635254
Right Ascen at Week(rad):   0.1984035621E+001
Argument of Perigee(rad):  -1.423083639
Mean Anom(rad):             0.1700542789E+000
Af0(s):                    -0.1401901245E-003
Af1(s/s):                   0.7275957614E-011
week:                        17

******** Week 17 almanac for PRN-22 ********
ID:                         22
Health:                     000
Eccentricity:               0.7034301758E-002
Time of Applicability(s):  405504.0000
Orbital Inclination(rad):   0.9284023239
Rate of Right Ascen(r/s):  -0.8228914196E-008
SQRT(A)  (m 1/2):           5153.675781
Right Ascen at Week(rad):   0.3016520039E+001
Argument of Perigee(rad):  -1.302204755
Mean Anom(rad):            -0.2971038408E+001
Af0(s):                    -0.7410049438E-003
Af1(s/s):                  -0.3637978807E-011
week:                        17

******** Week 17 almanac for PRN-23 ********
ID:                         23
Health:                     000
Eccentricity:               0.1324701309E-001
Time of Applicability(s):  405504.0000
Orbital Inclination(rad):   0.9432268101
Rate of Right Ascen(r/s):  -0.8057478483E-008
SQRT(A)  (m 1/2):           5153.720215
Right Ascen at Week(rad):  -0.2165110893E+001
Argument of Perigee(rad):  -2.234885672
Mean Anom(rad):             0.2836870516E+001
Af0(s):                    -0.1735687256E-003
Af1(s/s):                   0.3637978807E-011
week:                        17

******** Week 17 almanac for PRN-24 ********
ID:                         24
Health:                     000
Eccentricity:               0.8487224579E-002
Time of Applicability(s):  405504.0000
Orbital Inclination(rad):   0.9378518853
Rate of Right Ascen(r/s):  -0.8046049436E-008
SQRT(A)  (m 1/2):           5153.652344
Right Ascen at Week(rad):  -0.1150514428E+001
Argument of Perigee(rad):   0.601067677
Mean Anom(rad):             0.2302656838E+001
Af0(s):                    -0.9536743164E-006
Af1(s/s):                   0.0000000000E+000
week:                        17

******** Week 17 almanac for PRN-25 ********
ID:                         25
Health:                     000
Eccentricity:               0.8386135101E-002
Time of Applicability(s):  405504.0000
Orbital Inclination(rad):   0.9696100813
Rate of Right Ascen(r/s):  -0.8000333246E-008
SQRT(A)  (m 1/2):           5153.629395
Right Ascen at Week(rad):  -0.4735978429E-001
Argument of Perigee(rad):   0.902074705
Mean Anom(rad):             0.3116347884E+000
Af0(s):                    -0.6675720215E-005
Af1(s/s):                  -0.3637978807E-011
week:                        17

******** Week 17 almanac for PRN-26 ********
ID:                         26
Health:                     000
Eccentricity:               0.3788948059E-002
Time of Applicability(s):  405504.0000
Orbital Inclination(rad):   0.9508487772
Rate of Right Ascen(r/s):  -0.8183198006E-008
SQRT(A)  (m 1/2):           5153.596680
Right Ascen at Week(rad):  -0.7724806670E-001
Argument of Perigee(rad):   0.144487808
Mean Anom(rad):            -0.2184795357E+000
Af0(s):                     0.1049041748E-004
Af1(s/s):                   0.7275957614E-011
week:                        17

******** Week 17 almanac for PRN-27 ********
ID:                         27
Health:                     000
Eccentricity:               0.7159709930E-002
Time of Applicability(s):  405504.0000
Orbital Inclination(rad):   0.9785443209
Rate of Right Ascen(r/s):  -0.7920329914E-008
SQRT(A)  (m 1/2):           5153.604004
Right Ascen at Week(rad):   0.9944854373E+000
Argument of Perigee(rad):   0.519110559
Mean Anom(rad):            -0.2101590007E+001
Af0(s):                    -0.1811981201E-004
Af1(s/s):                  -0.1091393642E-010
week:                        17

******** Week 17 almanac for PRN-28 ********
ID:                         28
Health:                     000
Eccentricity:               0.1901388168E-001
Time of Applicability(s):  405504.0000
Orbital Inclination(rad):   0.9815164087
Rate of Right Ascen(r/s):  -0.7863184676E-008
SQRT(A)  (m 1/2):           5153.659180
Right Ascen at Week(rad):   0.4065049088E-001
Argument of Perigee(rad):  -1.461299834
Mean Anom(rad):            -0.1271545362E+001
Af0(s):                     0.7648468018E-003
Af1(s/s):                   0.0000000000E+000
week:                        17

******** Week 17 almanac for PRN-29 ********
ID:                         29
Health:                     000
Eccentricity:               0.1228809357E-002
Time of Applicability(s):  405504.0000
Orbital Inclination(rad):   0.9856150136
Rate of Right Ascen(r/s):  -0.7828897534E-008
SQRT(A)  (m 1/2):           5153.669922
Right Ascen at Week(rad):   0.1062362964E+001
Argument of Perigee(rad):   1.905685006
Mean Anom(rad):            -0.1749898321E+001
Af0(s):                     0.1306533813E-003
Af1(s/s):                  -0.1091393642E-010
week:                        17

******** Week 17 almanac for PRN-30 ********
ID:                         30
Health:                     000
Eccentricity:               0.4187583923E-002
Time of Applicability(s):  405504.0000
Orbital Inclination(rad):   0.9401348801
Rate of Right Ascen(r/s):  -0.8000333246E-008
SQRT(A)  (m 1/2):           5153.718750
Right Ascen at Week(rad):  -0.1056219925E+001
Argument of Perigee(rad):  -2.912470003
Mean Anom(rad):             0.1351902212E+001
Af0(s):                    -0.1525878906E-004
Af1(s/s):                  -0.7275957614E-011
week:                        17

******** Week 17 almanac for PRN-31 ********
ID:                         31
Health:                     000
Eccentricity:               0.9273052216E-002
Time of Applicability(s):  405504.0000
Orbital Inclination(rad):   0.9592317425
Rate of Right Ascen(r/s):  -0.7817468486E-008
SQRT(A)  (m 1/2):           5153.618164
Right Ascen at Week(rad):  -0.1068956160E+001
Argument of Perigee(rad):   0.014676930
Mean Anom(rad):             0.1084012840E+001
Af0(s):                     0.1907348633E-004
Af1(s/s):                  -0.3637978807E-011
week:                        17

******** Week 17 almanac for PRN-32 ********
ID:                         32
Health:                     000
Eccentricity:               0.3209114075E-002
Time of Applicability(s):  405504.0000
Orbital Inclination(rad):   0.9566371578
Rate of Right Ascen(r/s):  -0.7920329914E-008
SQRT(A)  (m 1/2):           5153.557129
Right Ascen at Week(rad):  -0.2152242082E+001
Argument of Perigee(rad):  -2.482777866
Mean Anom(rad):            -0.1399015571E+001
Af0(s):                     0.1144409180E-004
Af1(s/s):                   0.1455191523E-010
week:                        17